{
  "type": "FeatureCollection",
  "features": [
    {
      "type": "Feature",
      "properties": {
        "norad_id": 58647,
        "name": "TIANMU-1 13",
        "group": "weather",
        "lat": -33.352287863311766,
        "lon": -179.3753244881803,
        "alt_km": 496.3010395643387,
        "timestamp": "2025-12-11T20:41:14.731267+00:00",
        "meta_object_name": "TIANMU-1 13",
        "meta_object_id": "2023-205C",
        "meta_epoch": "2025-12-11T15:01:37.322688",
        "meta_mean_motion": 15.24501374,
        "meta_eccentricity": 0.00060507,
        "meta_inclination": 97.3627,
        "meta_ra_of_asc_node": 5.2751,
        "meta_arg_of_pericenter": 272.2545,
        "meta_mean_anomaly": 87.8,
        "meta_ephemeris_type": 0,
        "meta_classification_type": "U",
        "meta_norad_cat_id": 58647,
        "meta_element_set_no": 999,
        "meta_rev_at_epoch": 10890,
        "meta_bstar": 0.00038169381,
        "meta_mean_motion_dot": 9.321e-05,
        "meta_mean_motion_ddot": 0,
        "tle_line1": "1 58647U 23205C   25345.62612642  .00009321  00000+0  38169-3 0  9994",
        "tle_line2": "2 58647  97.3627   5.2751 0006050 272.2545  87.8000 15.24501374108907"
      },
      "geometry": {
        "type": "Point",
        "coordinates": [
          -179.3753244881803,
          -33.352287863311766
        ]
      }
    },
    {
      "type": "Feature",
      "properties": {
        "norad_id": 58648,
        "name": "TIANMU-1 14",
        "group": "weather",
        "lat": -54.62103483287823,
        "lon": 15.33810192045444,
        "alt_km": 495.1450183388806,
        "timestamp": "2025-12-11T20:41:14.731279+00:00",
        "meta_object_name": "TIANMU-1 14",
        "meta_object_id": "2023-205D",
        "meta_epoch": "2025-12-11T11:28:39.572256",
        "meta_mean_motion": 15.24496533,
        "meta_eccentricity": 0.00068805,
        "meta_inclination": 97.3559,
        "meta_ra_of_asc_node": 4.4796,
        "meta_arg_of_pericenter": 278.1719,
        "meta_mean_anomaly": 81.8738,
        "meta_ephemeris_type": 0,
        "meta_classification_type": "U",
        "meta_norad_cat_id": 58648,
        "meta_element_set_no": 999,
        "meta_rev_at_epoch": 10888,
        "meta_bstar": 0.00083373237,
        "meta_mean_motion_dot": 0.00020474,
        "meta_mean_motion_ddot": 0,
        "tle_line1": "1 58648U 23205D   25345.47823579  .00020474  00000+0  83373-3 0  9990",
        "tle_line2": "2 58648  97.3559   4.4796 0006880 278.1719  81.8738 15.24496533108880"
      },
      "geometry": {
        "type": "Point",
        "coordinates": [
          15.33810192045444,
          -54.62103483287823
        ]
      }
    },
    {
      "type": "Feature",
      "properties": {
        "norad_id": 58660,
        "name": "TIANMU-1 19",
        "group": "weather",
        "lat": -9.110495320041025,
        "lon": -84.30000857123332,
        "alt_km": 485.44150407233883,
        "timestamp": "2025-12-11T20:41:14.731290+00:00",
        "meta_object_name": "TIANMU-1 19",
        "meta_object_id": "2023-208A",
        "meta_epoch": "2025-12-11T13:34:28.640928",
        "meta_mean_motion": 15.27826854,
        "meta_eccentricity": 0.00040593,
        "meta_inclination": 97.4384,
        "meta_ra_of_asc_node": 96.6048,
        "meta_arg_of_pericenter": 258.3743,
        "meta_mean_anomaly": 101.7041,
        "meta_ephemeris_type": 0,
        "meta_classification_type": "U",
        "meta_norad_cat_id": 58660,
        "meta_element_set_no": 999,
        "meta_rev_at_epoch": 10864,
        "meta_bstar": 0.00083050895,
        "meta_mean_motion_dot": 0.00022541,
        "meta_mean_motion_ddot": 0,
        "tle_line1": "1 58660U 23208A   25345.56560927  .00022541  00000+0  83051-3 0  9992",
        "tle_line2": "2 58660  97.4384  96.6048 0004059 258.3743 101.7041 15.27826854108646"
      },
      "geometry": {
        "type": "Point",
        "coordinates": [
          -84.30000857123332,
          -9.110495320041025
        ]
      }
    },
    {
      "type": "Feature",
      "properties": {
        "norad_id": 58661,
        "name": "TIANMU-1 20",
        "group": "weather",
        "lat": -77.24839585537228,
        "lon": -117.8808457089601,
        "alt_km": 481.7883810489575,
        "timestamp": "2025-12-11T20:41:14.731300+00:00",
        "meta_object_name": "TIANMU-1 20",
        "meta_object_id": "2023-208B",
        "meta_epoch": "2025-12-11T11:42:06.731424",
        "meta_mean_motion": 15.29018979,
        "meta_eccentricity": 0.00062989,
        "meta_inclination": 97.4322,
        "meta_ra_of_asc_node": 96.9732,
        "meta_arg_of_pericenter": 271.3687,
        "meta_mean_anomaly": 88.6831,
        "meta_ephemeris_type": 0,
        "meta_classification_type": "U",
        "meta_norad_cat_id": 58661,
        "meta_element_set_no": 999,
        "meta_rev_at_epoch": 10870,
        "meta_bstar": 0.00089991058,
        "meta_mean_motion_dot": 0.00025354,
        "meta_mean_motion_ddot": 0,
        "tle_line1": "1 58661U 23208B   25345.48757791  .00025354  00000+0  89991-3 0  9995",
        "tle_line2": "2 58661  97.4322  96.9732 0006298 271.3687  88.6831 15.29018979108701"
      },
      "geometry": {
        "type": "Point",
        "coordinates": [
          -117.8808457089601,
          -77.24839585537228
        ]
      }
    },
    {
      "type": "Feature",
      "properties": {
        "norad_id": 58662,
        "name": "TIANMU-1 21",
        "group": "weather",
        "lat": -74.53480456366597,
        "lon": -108.92126817865683,
        "alt_km": 474.5432621876844,
        "timestamp": "2025-12-11T20:41:14.731312+00:00",
        "meta_object_name": "TIANMU-1 21",
        "meta_object_id": "2023-208C",
        "meta_epoch": "2025-12-11T13:17:55.142880",
        "meta_mean_motion": 15.31521549,
        "meta_eccentricity": 0.00059099,
        "meta_inclination": 97.437,
        "meta_ra_of_asc_node": 98.9429,
        "meta_arg_of_pericenter": 265.1,
        "meta_mean_anomaly": 94.9566,
        "meta_ephemeris_type": 0,
        "meta_classification_type": "U",
        "meta_norad_cat_id": 58662,
        "meta_element_set_no": 999,
        "meta_rev_at_epoch": 10881,
        "meta_bstar": 0.00091127616,
        "meta_mean_motion_dot": 0.00027744,
        "meta_mean_motion_ddot": 0,
        "tle_line1": "1 58662U 23208C   25345.55411045  .00027744  00000+0  91128-3 0  9993",
        "tle_line2": "2 58662  97.4370  98.9429 0005909 265.1000  94.9566 15.31521549108810"
      },
      "geometry": {
        "type": "Point",
        "coordinates": [
          -108.92126817865683,
          -74.53480456366597
        ]
      }
    },
    {
      "type": "Feature",
      "properties": {
        "norad_id": 58663,
        "name": "TIANMU-1 22",
        "group": "weather",
        "lat": -11.083560327669646,
        "lon": -84.50647702220226,
        "alt_km": 487.7828492002036,
        "timestamp": "2025-12-11T20:41:14.731322+00:00",
        "meta_object_name": "TIANMU-1 22",
        "meta_object_id": "2023-208D",
        "meta_epoch": "2025-12-11T13:33:53.728416",
        "meta_mean_motion": 15.27583244,
        "meta_eccentricity": 0.00027008,
        "meta_inclination": 97.4378,
        "meta_ra_of_asc_node": 96.664,
        "meta_arg_of_pericenter": 293.374,
        "meta_mean_anomaly": 66.7215,
        "meta_ephemeris_type": 0,
        "meta_classification_type": "U",
        "meta_norad_cat_id": 58663,
        "meta_element_set_no": 999,
        "meta_rev_at_epoch": 10865,
        "meta_bstar": 0.00078352189,
        "meta_mean_motion_dot": 0.00021099,
        "meta_mean_motion_ddot": 0,
        "tle_line1": "1 58663U 23208D   25345.56520519  .00021099  00000+0  78352-3 0  9993",
        "tle_line2": "2 58663  97.4378  96.6640 0002700 293.3740  66.7215 15.27583244108654"
      },
      "geometry": {
        "type": "Point",
        "coordinates": [
          -84.50647702220226,
          -11.083560327669646
        ]
      }
    },
    {
      "type": "Feature",
      "properties": {
        "norad_id": 58700,
        "name": "TIANMU-1 15",
        "group": "weather",
        "lat": -30.06387028916981,
        "lon": 171.68675341661816,
        "alt_km": 494.56734771792435,
        "timestamp": "2025-12-11T20:41:14.731332+00:00",
        "meta_object_name": "TIANMU-1 15",
        "meta_object_id": "2024-004A",
        "meta_epoch": "2025-12-11T12:56:40.540704",
        "meta_mean_motion": 15.24670451,
        "meta_eccentricity": 0.00052437,
        "meta_inclination": 97.4631,
        "meta_ra_of_asc_node": 167.0136,
        "meta_arg_of_pericenter": 303.7498,
        "meta_mean_anomaly": 56.324,
        "meta_ephemeris_type": 0,
        "meta_classification_type": "U",
        "meta_norad_cat_id": 58700,
        "meta_element_set_no": 999,
        "meta_rev_at_epoch": 10716,
        "meta_bstar": 0.00086402607,
        "meta_mean_motion_dot": 0.00021326,
        "meta_mean_motion_ddot": 0,
        "tle_line1": "1 58700U 24004A   25345.53935811  .00021326  00000+0  86403-3 0  9991",
        "tle_line2": "2 58700  97.4631 167.0136 0005243 303.7498  56.3240 15.24670451107164"
      },
      "geometry": {
        "type": "Point",
        "coordinates": [
          171.68675341661816,
          -30.06387028916981
        ]
      }
    }
  ]
}